JILIN-1 03              
1 41914U 17002B   26185.93894484  .00021731  00000+0  50989-3 0  9997
2 41914  97.1949 192.7774 0007999 106.4011 253.8116 15.42033359524590
CARTOSAT-2D             
1 41948U 17008A   26185.94167020  .00005093  00000+0  24497-3 0  9998
2 41948  97.4093 244.9150 0005106 168.2149 191.9206 15.19224287520273
CARTOSAT-2E             
1 42767U 17036C   26184.64211716  .00006795  00000+0  32509-3 0  9990
2 42767  97.4262 244.1738 0002490 235.4252 124.6748 15.19298181500647
IRIDIUM 113             
1 42803U 17039A   26185.82202392  .00000333  00000+0  11189-3 0  9998
2 42803  86.3988 314.8073 0002182  90.8242 269.3204 14.34220381473711
NORSAT 2                
1 42828U 17042D   26185.90928803  .00018295  00000+0  79548-3 0  9999
2 42828  97.4052 359.0727 0009074 356.9888   3.1292 15.22284197490431
TECHNOSAT               
1 42829U 17042E   26184.87093637  .00003285  00000+0  23451-3 0  9998
2 42829  97.4295 341.8960 0018427  40.8087 319.4516 15.05054378489214
FLYING LAPTOP           
1 42831U 17042G   26185.98245589  .00005903  00000+0  46169-3 0  9999
2 42831  97.4771 340.8398 0019966  64.9202 295.4092 15.01265311489124
WNISAT 1R               
1 42835U 17042L   26185.88179267  .00003166  00000+0  24672-3 0  9995
2 42835  97.4840 341.3722 0011882  95.4712 264.7869 15.01839497489163
LEMUR-2-GREENBERG       
1 42837U 17042N   26185.46590226  .00024909  00000+0  80942-3 0  9993
2 42837  97.3827   6.0171 0007279 305.7985  54.2579 15.31879629491039
LEMUR-2-FURIAUS         
1 42840U 17042R   26185.73310588  .00036173  00000+0  12101-2 0  9995
2 42840  97.3776   4.1987 0006868  10.1304 350.0075 15.30867625490898
CORVUS BC2              
1 42846U 17042X   26185.39962282  .00005115  00000+0  35041-3 0  9998
2 42846  97.4083 346.0818 0013966  56.8033 303.4532 15.06405436489653
CORVUS BC1              
1 42847U 17042Y   26185.92367013  .00005608  00000+0  38214-3 0  9991
2 42847  97.4124 347.4115 0012507  34.0199 326.1828 15.06581280489760
VRSS-2                  
1 42954U 17060A   26185.95376668  .00000783  00000+0  10665-3 0  9998
2 42954  97.6498 222.8801 0018276  45.5955 314.6751 14.81224825471083
MOHAMMED VI-A           
1 43005U 17070A   26185.95937309  .00000747  00000+0  11299-3 0  9996
2 43005  97.9551 258.0454 0001138  85.9637 274.1704 14.77092128466607
FENGYUN 3D              
1 43010U 17072A   26185.90698428  .00000206  00000+0  11931-3 0  9998
2 43010  99.0139 160.6503 0001995  33.3383 326.7918 14.19743540447503
NOAA 20 (JPSS-1)        
1 43013U 17073A   26185.83436936  .00000086  00000+0  61839-4 0  9997
2 43013  98.7772 125.1403 0000967 132.9183 227.2074 14.19515164446979
MAKERSAT 0              
1 43016U 17073D   26184.63594315  .00020784  00000+0  55467-3 0  9999
2 43016  97.4595  67.2865 0104955 213.5729 145.8834 15.32642938468983
RADFXSAT (FOX-1B)       
1 43017U 17073E   26185.07439523  .00007880  00000+0  34433-3 0  9990
2 43017  97.4676  51.9443 0148129 270.3124  88.1134 15.12944188467944
JILIN-1 04              
1 43022U 17074A   26185.72957894  .00025607  00000+0  58318-3 0  9990
2 43022  97.4871 295.8159 0005095 127.1256 233.0458 15.42921318476975
JILIN-1 05              
1 43023U 17074B   26185.73353494  .00015815  00000+0  48009-3 0  9994
2 43023  97.4875 292.1288 0005852 154.4031 205.7502 15.34161916476694
JILIN-1 06              
1 43024U 17074C   26185.70757309  .00009864  00000+0  30288-3 0  9992
2 43024  97.4801 289.0893 0007259 166.4407 193.7032 15.33911378476524
IRIDIUM 116             
1 43072U 17083C   26185.79665659  .00000145  00000+0  44803-4 0  9992
2 43072  86.3982 314.6393 0002323 100.9704 259.1754 14.34218604446699
IRIDIUM 130             
1 43073U 17083D   26185.62540616  .00000111  00000+0  32624-4 0  9991
2 43073  86.3989 314.9877 0002090  98.9990 261.1443 14.34218114446617
LKW-2                   
1 43080U 17084A   26185.99025388  .00011137  00000+0  42789-3 0  9996
2 43080  97.1178 224.9553 0002903 140.4217 219.7235 15.26587735474400
SUPERVIEW-1 03          
1 43099U 18002A   26185.97470045  .00032444  00000+0  78328-3 0  9991
2 43099  97.3129 270.7914 0047329 116.8263 243.7834 15.39935802471109
CARTOSAT-2F             
1 43111U 18004A   26185.99190747  .00006819  00000+0  32709-3 0  9998
2 43111  97.4772 245.4519 0001910 156.7921 203.3400 15.19211071470034
LKW-3                   
1 43146U 18006A   26185.97590405  .00018258  00000+0  52922-3 0  9990
2 43146  97.6633 347.2495 0002152 222.1325 137.9752 15.35606980471442
ASNARO-2                
1 43152U 18007A   26185.40663336  .00003040  00000+0  13468-3 0  9995
2 43152  97.3972 192.0644 0001729  85.2553 274.8881 15.22387761470031
