OBJECT_NAME,OBJECT_ID,EPOCH,MEAN_MOTION,ECCENTRICITY,INCLINATION,RA_OF_ASC_NODE,ARG_OF_PERICENTER,MEAN_ANOMALY,EPHEMERIS_TYPE,CLASSIFICATION_TYPE,NORAD_CAT_ID,ELEMENT_SET_NO,REV_AT_EPOCH,BSTAR,MEAN_MOTION_DOT,MEAN_MOTION_DDOT
JILIN-1 03,2017-002B,2026-07-04T22:32:04.834176,15.42033359,.00079994,97.1949,192.7774,106.4011,253.8116,0,U,41914,999,52459,.50989275E-3,.21731E-3,0
CARTOSAT-2D,2017-008A,2026-07-04T22:36:00.305280,15.19224287,.00051062,97.4093,244.9150,168.2149,191.9206,0,U,41948,999,52027,.24497192E-3,.5093E-4,0
CARTOSAT-2E,2017-036C,2026-07-03T15:24:38.922624,15.19298181,.000249,97.4262,244.1738,235.4252,124.6748,0,U,42767,999,50064,.32509E-3,.6795E-4,0
IRIDIUM 113,2017-039A,2026-07-04T19:43:42.866688,14.34220381,.00021827,86.3988,314.8073,90.8242,269.3204,0,U,42803,999,47371,.11189206E-3,.333E-5,0
NORSAT 2,2017-042D,2026-07-04T21:49:22.485792,15.22284197,.00090744,97.4052,359.0727,356.9888,3.1292,0,U,42828,999,49043,.79547555E-3,.18295E-3,0
TECHNOSAT,2017-042E,2026-07-03T20:54:08.902368,15.05054378,.0018427,97.4295,341.8960,40.8087,319.4516,0,U,42829,999,48921,.23450779E-3,.3285E-4,0
FLYING LAPTOP,2017-042G,2026-07-04T23:34:44.188896,15.01265311,.00199667,97.4771,340.8398,64.9202,295.4092,0,U,42831,999,48912,.46168584E-3,.5903E-4,0
WNISAT 1R,2017-042L,2026-07-04T21:09:46.886688,15.01839497,.00118822,97.4840,341.3722,95.4712,264.7869,0,U,42835,999,48916,.24671788E-3,.3166E-4,0
LEMUR-2-GREENBERG,2017-042N,2026-07-04T11:10:53.955264,15.31879629,.00072799,97.3827,6.0171,305.7985,54.2579,0,U,42837,999,49103,.8094247E-3,.24909E-3,0
LEMUR-2-FURIAUS,2017-042R,2026-07-04T17:35:40.348032,15.30867625,.00068683,97.3776,4.1987,10.1304,350.0075,0,U,42840,999,49089,.12100533E-2,.36173E-3,0
CORVUS BC2,2017-042X,2026-07-04T09:35:27.411648,15.06405436,.00139663,97.4083,346.0818,56.8033,303.4532,0,U,42846,999,48965,.35041268E-3,.5115E-4,0
CORVUS BC1,2017-042Y,2026-07-04T22:10:05.099232,15.06581280,.00125077,97.4124,347.4115,34.0199,326.1828,0,U,42847,999,48976,.38214477E-3,.5608E-4,0
VRSS-2,2017-060A,2026-07-04T22:53:25.441152,14.81224825,.00182762,97.6498,222.8801,45.5955,314.6751,0,U,42954,999,47108,.10665245E-3,.783E-5,0
MOHAMMED VI-A,2017-070A,2026-07-04T23:01:29.834976,14.77092128,.00011382,97.9551,258.0454,85.9637,274.1704,0,U,43005,999,46660,.11298708E-3,.747E-5,0
FENGYUN 3D,2017-072A,2026-07-04T21:46:03.441792,14.19743540,.00019957,99.0139,160.6503,33.3383,326.7918,0,U,43010,999,44750,.1193125E-3,.206E-5,0
NOAA 20 (JPSS-1),2017-073A,2026-07-04T20:01:29.512704,14.19515164,.00009678,98.7772,125.1403,132.9183,227.2074,0,U,43013,999,44697,.61838635E-4,.86E-6,0
MAKERSAT 0,2017-073D,2026-07-03T15:15:45.488160,15.32642938,.01049552,97.4595,67.2865,213.5729,145.8834,0,U,43016,999,46898,.55467001E-3,.20784E-3,0
RADFXSAT (FOX-1B),2017-073E,2026-07-04T01:47:07.747872,15.12944188,.01481297,97.4676,51.9443,270.3124,88.1134,0,U,43017,999,46794,.34432933E-3,.788E-4,0
JILIN-1 04,2017-074A,2026-07-04T17:30:35.620416,15.42921318,.0005095,97.4871,295.8159,127.1256,233.0458,0,U,43022,999,47697,.58318037E-3,.25607E-3,0
JILIN-1 05,2017-074B,2026-07-04T17:36:17.418816,15.34161916,.00058522,97.4875,292.1288,154.4031,205.7502,0,U,43023,999,47669,.4800874E-3,.15815E-3,0
JILIN-1 06,2017-074C,2026-07-04T16:58:54.314976,15.33911378,.00072595,97.4801,289.0893,166.4407,193.7032,0,U,43024,999,47652,.30288081E-3,.9864E-4,0
IRIDIUM 116,2017-083C,2026-07-04T19:07:11.129376,14.34218604,.00023238,86.3982,314.6393,100.9704,259.1754,0,U,43072,999,44669,.44803236E-4,.145E-5,0
IRIDIUM 130,2017-083D,2026-07-04T15:00:35.092224,14.34218114,.00020901,86.3989,314.9877,98.9990,261.1443,0,U,43073,999,44661,.32623675E-4,.111E-5,0
LKW-2,2017-084A,2026-07-04T23:45:57.935232,15.26587735,.0002903,97.1178,224.9553,140.4217,219.7235,0,U,43080,999,47440,.42788974E-3,.11137E-3,0
SUPERVIEW-1 03,2018-002A,2026-07-04T23:23:34.118880,15.39935802,.00473294,97.3129,270.7914,116.8263,243.7834,0,U,43099,999,47110,.78327701E-3,.32444E-3,0
CARTOSAT-2F,2018-004A,2026-07-04T23:48:20.805408,15.19211071,.00019102,97.4772,245.4519,156.7921,203.3400,0,U,43111,999,47003,.32708682E-3,.6819E-4,0
LKW-3,2018-006A,2026-07-04T23:25:18.109920,15.35606980,.00021523,97.6633,347.2495,222.1325,137.9752,0,U,43146,999,47144,.52922161E-3,.18258E-3,0
ASNARO-2,2018-007A,2026-07-04T09:45:33.122304,15.22387761,.00017299,97.3972,192.0644,85.2553,274.8881,0,U,43152,999,47003,.13467909E-3,.304E-4,0
